[{"OBJECT_NAME":"JILIN-1 08","OBJECT_ID":"2018-008F","EPOCH":"2026-03-09T22:37:53.184288","MEAN_MOTION":15.32205976,"ECCENTRICITY":0.00081321,"INCLINATION":97.1902,"RA_OF_ASC_NODE":90.9961,"ARG_OF_PERICENTER":76.0646,"MEAN_ANOMALY":284.15,"EPHEMERIS_TYPE":0,"CLASSIFICATION_TYPE":"U","NORAD_CAT_ID":43160,"ELEMENT_SET_NO":999,"REV_AT_EPOCH":44974,"BSTAR":0.00036689195,"MEAN_MOTION_DOT":0.00011349,"MEAN_MOTION_DDOT":0},{"OBJECT_NAME":"STARLINK-34820","OBJECT_ID":"2025-161AC","EPOCH":"2026-03-09T21:38:10.196160","MEAN_MOTION":15.30200105,"ECCENTRICITY":9.289e-5,"INCLINATION":53.1577,"RA_OF_ASC_NODE":293.1186,"ARG_OF_PERICENTER":62.7884,"MEAN_ANOMALY":297.3211,"EPHEMERIS_TYPE":0,"CLASSIFICATION_TYPE":"U","NORAD_CAT_ID":65041,"ELEMENT_SET_NO":999,"REV_AT_EPOCH":3426,"BSTAR":0.0012359343,"MEAN_MOTION_DOT":0.00036425,"MEAN_MOTION_DDOT":0}]
